0 COSMOS 1515
1 14551U 83122A   13283.45189325  .00004304  00000-0  27198-3 0  6860
2 14551 082.5073 060.2748 0009445 264.8278 130.0201 15.08782265366229
0 COSMOS 1515
1 14551U 83122A   13286.18037493  .00003950  00000-0  24930-3 0  6880
2 14551 082.5072 057.6110 0009615 255.2033 190.4373 15.08799361366633
0 COSMOS 1515
1 14551U 83122A   13287.49933740  .00004026  00000-0  25410-3 0  6895
2 14551 082.5075 056.3233 0009707 250.5856 154.7339 15.08807761366832
0 COSMOS 1515
1 14551U 83122A   13288.83831868  .00005068  00000-0  32021-3 0  6907
2 14551 082.5081 055.0162 0009825 245.9944 227.7263 15.08821510367031
0 COSMOS 1515
1 14551U 83122A   13290.15950366  .00005320  00000-0  33605-3 0  6911
2 14551 082.5086 053.7267 0009886 241.4479 204.1314 15.08832156367234
0 COSMOS 1515
1 14551U 83122A   13291.47844399  .00004695  00000-0  29627-3 0  6929
2 14551 082.5091 052.4397 0010013 237.0195 168.2837 15.08844170367431
0 COSMOS 1515
1 14551U 83122A   13293.46798057  .00005145  00000-0  32470-3 0  6931
2 14551 082.5093 050.4979 0010157 230.2290 175.1614 15.08860965367730
0 COSMOS 1515
1 14551U 83122A   13294.81654993  .00005840  00000-0  36866-3 0  6947
2 14551 082.5092 049.1815 0010246 225.5021 300.5877 15.08871613367930
0 COSMOS 1515
1 14551U 83122A   13296.18612478  .00005774  00000-0  36431-3 0  6956
2 14551 082.5090 047.8449 0010329 221.1091 179.7659 15.08883960368143
